ICEYE-X39               
1 60546U 24149CG  26068.72048823  .00003515  00000+0  29320-3 0  9999
2 60546  97.6853 147.0953 0005274  52.5538 307.6164 14.99225125 85219
STARLINK-33968          
1 63883U 25094V   26068.85530523  .00003779  00000+0  32433-3 0  9994
2 63883  70.0024 234.2086 0003008 268.4679  91.6135 14.98334370 47223
